[{"OBJECT_NAME":"STARLINK-36833","OBJECT_ID":"2026-044J","EPOCH":"2026-03-29T20:17:40.654752","MEAN_MOTION":15.72650594,"ECCENTRICITY":0.0004718,"INCLINATION":97.2841,"RA_OF_ASC_NODE":49.9881,"ARG_OF_PERICENTER":146.9426,"MEAN_ANOMALY":213.2133,"EPHEMERIS_TYPE":0,"CLASSIFICATION_TYPE":"U","NORAD_CAT_ID":68109,"ELEMENT_SET_NO":999,"REV_AT_EPOCH":465,"BSTAR":-0.0057154,"MEAN_MOTION_DOT":-0.00705314,"MEAN_MOTION_DDOT":0},{"OBJECT_NAME":"STARLINK-36830","OBJECT_ID":"2026-044K","EPOCH":"2026-03-29T23:22:09.433056","MEAN_MOTION":15.71792348,"ECCENTRICITY":0.0005809,"INCLINATION":97.2841,"RA_OF_ASC_NODE":50.1203,"ARG_OF_PERICENTER":136.5566,"MEAN_ANOMALY":223.6156,"EPHEMERIS_TYPE":0,"CLASSIFICATION_TYPE":"U","NORAD_CAT_ID":68110,"ELEMENT_SET_NO":999,"REV_AT_EPOCH":467,"BSTAR":-0.0020394,"MEAN_MOTION_DOT":-0.00255851,"MEAN_MOTION_DDOT":0},{"OBJECT_NAME":"STARLINK-36791","OBJECT_ID":"2026-044L","EPOCH":"2026-03-29T03:28:21.773280","MEAN_MOTION":15.75258786,"ECCENTRICITY":0.0002115,"INCLINATION":97.2845,"RA_OF_ASC_NODE":49.259,"ARG_OF_PERICENTER":109.033,"MEAN_ANOMALY":251.1165,"EPHEMERIS_TYPE":0,"CLASSIFICATION_TYPE":"U","NORAD_CAT_ID":68111,"ELEMENT_SET_NO":999,"REV_AT_EPOCH":454,"BSTAR":0.0015161,"MEAN_MOTION_DOT":0.00232977,"MEAN_MOTION_DDOT":0},{"OBJECT_NAME":"STARLINK-36893","OBJECT_ID":"2026-044M","EPOCH":"2026-03-30T03:50:56.997024","MEAN_MOTION":15.74836967,"ECCENTRICITY":0.0014086,"INCLINATION":97.284,"RA_OF_ASC_NODE":50.325,"ARG_OF_PERICENTER":201.6793,"MEAN_ANOMALY":158.3877,"EPHEMERIS_TYPE":0,"CLASSIFICATION_TYPE":"U","NORAD_CAT_ID":68112,"ELEMENT_SET_NO":999,"REV_AT_EPOCH":470,"BSTAR":0.0029806,"MEAN_MOTION_DOT":0.00464392,"MEAN_MOTION_DDOT":0},{"OBJECT_NAME":"STARLINK-36937","OBJECT_ID":"2026-044N","EPOCH":"2026-03-29T23:15:17.834688","MEAN_MOTION":15.72924713,"ECCENTRICITY":0.0001431,"INCLINATION":97.2844,"RA_OF_ASC_NODE":50.1263,"ARG_OF_PERICENTER":27.9004,"MEAN_ANOMALY":332.2337,"EPHEMERIS_TYPE":0,"CLASSIFICATION_TYPE":"U","NORAD_CAT_ID":68113,"ELEMENT_SET_NO":999,"REV_AT_EPOCH":467,"BSTAR":-0.0020275,"MEAN_MOTION_DOT":-0.00266144,"MEAN_MOTION_DDOT":0},{"OBJECT_NAME":"STARLINK-36229","OBJECT_ID":"2026-044P","EPOCH":"2026-03-29T03:25:49.389600","MEAN_MOTION":15.75277619,"ECCENTRICITY":0.0002034,"INCLINATION":97.2847,"RA_OF_ASC_NODE":49.2594,"ARG_OF_PERICENTER":106.434,"MEAN_ANOMALY":253.7148,"EPHEMERIS_TYPE":0,"CLASSIFICATION_TYPE":"U","NORAD_CAT_ID":68114,"ELEMENT_SET_NO":999,"REV_AT_EPOCH":454,"BSTAR":0.0019543,"MEAN_MOTION_DOT":0.00303099,"MEAN_MOTION_DDOT":0},{"OBJECT_NAME":"STARLINK-36392","OBJECT_ID":"2026-044Q","EPOCH":"2026-03-30T04:00:01.999584","MEAN_MOTION":15.68950564,"ECCENTRICITY":0.0001502,"INCLINATION":97.2844,"RA_OF_ASC_NODE":50.3295,"ARG_OF_PERICENTER":106.2029,"MEAN_ANOMALY":286.8579,"EPHEMERIS_TYPE":0,"CLASSIFICATION_TYPE":"U","NORAD_CAT_ID":68115,"ELEMENT_SET_NO":999,"REV_AT_EPOCH":469,"BSTAR":-0.018936,"MEAN_MOTION_DOT":-0.01926341,"MEAN_MOTION_DDOT":0},{"OBJECT_NAME":"STARLINK-36805","OBJECT_ID":"2026-044R","EPOCH":"2026-03-30T04:00:01.999584","MEAN_MOTION":15.70315417,"ECCENTRICITY":0.0001463,"INCLINATION":97.2846,"RA_OF_ASC_NODE":50.333,"ARG_OF_PERICENTER":106.4827,"MEAN_ANOMALY":295.0111,"EPHEMERIS_TYPE":0,"CLASSIFICATION_TYPE":"U","NORAD_CAT_ID":68116,"ELEMENT_SET_NO":999,"REV_AT_EPOCH":469,"BSTAR":-0.018008,"MEAN_MOTION_DOT":-0.01937484,"MEAN_MOTION_DDOT":0},{"OBJECT_NAME":"STARLINK-36844","OBJECT_ID":"2026-044S","EPOCH":"2026-03-29T03:21:14.439744","MEAN_MOTION":15.75238814,"ECCENTRICITY":0.0001273,"INCLINATION":97.285,"RA_OF_ASC_NODE":49.2637,"ARG_OF_PERICENTER":148.3895,"MEAN_ANOMALY":211.7447,"EPHEMERIS_TYPE":0,"CLASSIFICATION_TYPE":"U","NORAD_CAT_ID":68117,"ELEMENT_SET_NO":999,"REV_AT_EPOCH":454,"BSTAR":0.00097085,"MEAN_MOTION_DOT":0.00147518,"MEAN_MOTION_DDOT":0},{"OBJECT_NAME":"STARLINK-36789","OBJECT_ID":"2026-044T","EPOCH":"2026-03-30T02:12:45.858816","MEAN_MOTION":15.76128698,"ECCENTRICITY":0.0008522,"INCLINATION":97.2852,"RA_OF_ASC_NODE":50.2644,"ARG_OF_PERICENTER":304.9124,"MEAN_ANOMALY":55.134,"EPHEMERIS_TYPE":0,"CLASSIFICATION_TYPE":"U","NORAD_CAT_ID":68118,"ELEMENT_SET_NO":999,"REV_AT_EPOCH":469,"BSTAR":0.0071141,"MEAN_MOTION_DOT":0.01227542,"MEAN_MOTION_DDOT":0},{"OBJECT_NAME":"STARLINK-36850","OBJECT_ID":"2026-044U","EPOCH":"2026-03-29T03:20:13.837920","MEAN_MOTION":15.75261952,"ECCENTRICITY":0.0002469,"INCLINATION":97.285,"RA_OF_ASC_NODE":49.2648,"ARG_OF_PERICENTER":108.7421,"MEAN_ANOMALY":251.4112,"EPHEMERIS_TYPE":0,"CLASSIFICATION_TYPE":"U","NORAD_CAT_ID":68119,"ELEMENT_SET_NO":999,"REV_AT_EPOCH":454,"BSTAR":0.0014321,"MEAN_MOTION_DOT":0.00219764,"MEAN_MOTION_DDOT":0},{"OBJECT_NAME":"STARLINK-36868","OBJECT_ID":"2026-044V","EPOCH":"2026-03-30T03:41:44.308320","MEAN_MOTION":15.75849204,"ECCENTRICITY":0.0002273,"INCLINATION":97.2839,"RA_OF_ASC_NODE":50.3332,"ARG_OF_PERICENTER":138.504,"MEAN_ANOMALY":221.6399,"EPHEMERIS_TYPE":0,"CLASSIFICATION_TYPE":"U","NORAD_CAT_ID":68120,"ELEMENT_SET_NO":999,"REV_AT_EPOCH":470,"BSTAR":0.0044302,"MEAN_MOTION_DOT":0.00742174,"MEAN_MOTION_DDOT":0},{"OBJECT_NAME":"STARLINK-36855","OBJECT_ID":"2026-044W","EPOCH":"2026-03-30T03:40:05.890080","MEAN_MOTION":15.76721584,"ECCENTRICITY":0.000958,"INCLINATION":97.2843,"RA_OF_ASC_NODE":50.335,"ARG_OF_PERICENTER":213.9467,"MEAN_ANOMALY":146.1187,"EPHEMERIS_TYPE":0,"CLASSIFICATION_TYPE":"U","NORAD_CAT_ID":68121,"ELEMENT_SET_NO":999,"REV_AT_EPOCH":470,"BSTAR":0.0036635,"MEAN_MOTION_DOT":0.00629703,"MEAN_MOTION_DDOT":0},{"OBJECT_NAME":"STARLINK-36366","OBJECT_ID":"2026-044X","EPOCH":"2026-03-29T03:16:40.500768","MEAN_MOTION":15.7520515,"ECCENTRICITY":0.0001357,"INCLINATION":97.2851,"RA_OF_ASC_NODE":49.2682,"ARG_OF_PERICENTER":89.7126,"MEAN_ANOMALY":270.4294,"EPHEMERIS_TYPE":0,"CLASSIFICATION_TYPE":"U","NORAD_CAT_ID":68122,"ELEMENT_SET_NO":999,"REV_AT_EPOCH":454,"BSTAR":0.00067017,"MEAN_MOTION_DOT":0.00101088,"MEAN_MOTION_DDOT":0},{"OBJECT_NAME":"STARLINK-36922","OBJECT_ID":"2026-044Y","EPOCH":"2026-03-30T03:37:11.800128","MEAN_MOTION":15.73948233,"ECCENTRICITY":0.000277,"INCLINATION":97.2843,"RA_OF_ASC_NODE":50.3383,"ARG_OF_PERICENTER":186.3816,"MEAN_ANOMALY":173.7413,"EPHEMERIS_TYPE":0,"CLASSIFICATION_TYPE":"U","NORAD_CAT_ID":68123,"ELEMENT_SET_NO":999,"REV_AT_EPOCH":470,"BSTAR":-0.0022253,"MEAN_MOTION_DOT":-0.00303906,"MEAN_MOTION_DDOT":0},{"OBJECT_NAME":"STARLINK-36938","OBJECT_ID":"2026-044Z","EPOCH":"2026-03-30T04:00:01.999584","MEAN_MOTION":15.75141299,"ECCENTRICITY":0.0001492,"INCLINATION":97.2856,"RA_OF_ASC_NODE":50.4059,"ARG_OF_PERICENTER":85.5778,"MEAN_ANOMALY":125.9852,"EPHEMERIS_TYPE":0,"CLASSIFICATION_TYPE":"U","NORAD_CAT_ID":68124,"ELEMENT_SET_NO":999,"REV_AT_EPOCH":469,"BSTAR":0.00044029,"MEAN_MOTION_DOT":0.00065913,"MEAN_MOTION_DDOT":0},{"OBJECT_NAME":"STARLINK-36839","OBJECT_ID":"2026-044AA","EPOCH":"2026-03-30T03:38:42.303264","MEAN_MOTION":15.73676565,"ECCENTRICITY":4.52e-5,"INCLINATION":97.2843,"RA_OF_ASC_NODE":50.3365,"ARG_OF_PERICENTER":86.3688,"MEAN_ANOMALY":273.7628,"EPHEMERIS_TYPE":0,"CLASSIFICATION_TYPE":"U","NORAD_CAT_ID":68125,"ELEMENT_SET_NO":999,"REV_AT_EPOCH":470,"BSTAR":-0.0068416,"MEAN_MOTION_DOT":-0.00864154,"MEAN_MOTION_DDOT":0},{"OBJECT_NAME":"ECHOSTAR 25","OBJECT_ID":"2026-045A","EPOCH":"2026-03-30T05:25:21.468288","MEAN_MOTION":1.00272911,"ECCENTRICITY":0.0002462,"INCLINATION":0.0499,"RA_OF_ASC_NODE":282.2161,"ARG_OF_PERICENTER":110.835,"MEAN_ANOMALY":106.9976,"EPHEMERIS_TYPE":0,"CLASSIFICATION_TYPE":"U","NORAD_CAT_ID":68126,"ELEMENT_SET_NO":999,"REV_AT_EPOCH":20,"BSTAR":0,"MEAN_MOTION_DOT":4.1e-7,"MEAN_MOTION_DDOT":0},{"OBJECT_NAME":"ICOR SV","OBJECT_ID":"2026-046A","EPOCH":"2026-03-30T01:56:53.239200","MEAN_MOTION":15.95276688,"ECCENTRICITY":0.0101004,"INCLINATION":123.0765,"RA_OF_ASC_NODE":298.7803,"ARG_OF_PERICENTER":224.1446,"MEAN_ANOMALY":135.1534,"EPHEMERIS_TYPE":0,"CLASSIFICATION_TYPE":"U","NORAD_CAT_ID":68127,"ELEMENT_SET_NO":999,"REV_AT_EPOCH":284,"BSTAR":0.00070404,"MEAN_MOTION_DOT":0.00482223,"MEAN_MOTION_DDOT":1.2137e-5},{"OBJECT_NAME":"FIREFLY ALPHA R/B","OBJECT_ID":"2026-046B","EPOCH":"2026-03-30T04:28:50.968992","MEAN_MOTION":15.57366407,"ECCENTRICITY":0.0016428,"INCLINATION":123.0937,"RA_OF_ASC_NODE":295.4597,"ARG_OF_PERICENTER":21.1333,"MEAN_ANOMALY":339.0404,"EPHEMERIS_TYPE":0,"CLASSIFICATION_TYPE":"U","NORAD_CAT_ID":68128,"ELEMENT_SET_NO":999,"REV_AT_EPOCH":283,"BSTAR":0.0006013,"MEAN_MOTION_DOT":0.00044776,"MEAN_MOTION_DDOT":0},{"OBJECT_NAME":"GUOWANG GROUP 20 OBJECT A","OBJECT_ID":"2026-047A","EPOCH":"2026-03-27T14:49:26.211072","MEAN_MOTION":13.95400488,"ECCENTRICITY":0.0001326,"INCLINATION":50.0073,"RA_OF_ASC_NODE":357.5704,"ARG_OF_PERICENTER":229.8596,"MEAN_ANOMALY":130.2189,"EPHEMERIS_TYPE":0,"CLASSIFICATION_TYPE":"U","NORAD_CAT_ID":68129,"ELEMENT_SET_NO":999,"REV_AT_EPOCH":208,"BSTAR":3.4814e-5,"MEAN_MOTION_DOT":-1.01e-6,"MEAN_MOTION_DDOT":0},{"OBJECT_NAME":"GUOWANG GROUP 20 OBJECT B","OBJECT_ID":"2026-047B","EPOCH":"2026-03-26T18:09:03.081024","MEAN_MOTION":13.9659141,"ECCENTRICITY":4.28e-5,"INCLINATION":50.0066,"RA_OF_ASC_NODE":1.0171,"ARG_OF_PERICENTER":307.3036,"MEAN_ANOMALY":52.7826,"EPHEMERIS_TYPE":0,"CLASSIFICATION_TYPE":"U","NORAD_CAT_ID":68130,"ELEMENT_SET_NO":999,"REV_AT_EPOCH":195,"BSTAR":5.5036e-5,"MEAN_MOTION_DOT":-7.2e-7,"MEAN_MOTION_DDOT":0},{"OBJECT_NAME":"GUOWANG GROUP 20 OBJECT C","OBJECT_ID":"2026-047C","EPOCH":"2026-03-26T19:49:39.748800","MEAN_MOTION":13.9686269,"ECCENTRICITY":4.8e-6,"INCLINATION":49.9996,"RA_OF_ASC_NODE":0.7054,"ARG_OF_PERICENTER":49.5998,"MEAN_ANOMALY":310.4907,"EPHEMERIS_TYPE":0,"CLASSIFICATION_TYPE":"U","NORAD_CAT_ID":68131,"ELEMENT_SET_NO":999,"REV_AT_EPOCH":197,"BSTAR":2.709e-5,"MEAN_MOTION_DOT":-1.11e-6,"MEAN_MOTION_DDOT":0}]
